OBJECT_NAME,OBJECT_ID,EPOCH,MEAN_MOTION,ECCENTRICITY,INCLINATION,RA_OF_ASC_NODE,ARG_OF_PERICENTER,MEAN_ANOMALY,EPHEMERIS_TYPE,CLASSIFICATION_TYPE,NORAD_CAT_ID,ELEMENT_SET_NO,REV_AT_EPOCH,BSTAR,MEAN_MOTION_DOT,MEAN_MOTION_DDOT
TYVAK-182A,2021-034D,2026-05-13T18:42:53.354016,15.05824532,.00073044,97.5746,193.2992,90.6555,269.5509,0,U,48271,999,27465,.27564576E-3,.394E-4,0
CSS (TIANHE),2021-035A,2026-05-13T11:28:32.957472,15.62173368,.00041216,41.4670,173.0841,296.9881,63.0537,0,U,48274,999,28774,.13972158E-3,.12315E-3,0
TYVAK-0130,2021-041BF,2026-05-13T13:25:49.479744,15.27073027,.00111358,52.9933,186.8358,63.9436,296.2707,0,U,48606,999,27509,.19003195E-3,.4773E-4,0
HAIYANG-2D,2021-043A,2026-05-13T22:51:33.102144,13.83371793,.00113964,66.0005,29.9329,273.1984,86.7780,0,U,48621,999,25181,-.21452628E-3,-.318E-5,0
TYVAK-0173,2021-059P,2026-05-13T11:43:45.174720,14.81768237,.00104209,96.0084,218.4721,139.1139,221.0863,0,U,48892,999,26310,.14520859E-3,.1115E-4,0
MANDRAKE 2 ABLE,2021-059AE,2026-05-13T22:08:55.228416,15.53578953,.00062485,97.7045,321.1332,114.6688,245.5216,0,U,48907,999,27180,.24212913E-3,.15329E-3,0
MANDRAKE 2 BAKER,2021-059AF,2026-05-13T12:01:41.374848,15.57779611,.00048841,97.7021,323.3203,113.6266,246.5502,0,U,48908,999,27189,.24178363E-3,.17871E-3,0
PACE-1,2021-059AG,2026-05-13T12:10:36.002496,15.74499177,.0002882,97.6799,327.8918,98.3452,261.8138,0,U,48909,999,27233,.35268212E-3,.51245E-3,0
YAM-3,2021-059AN,2026-05-13T11:41:30.359616,15.47766082,.00066094,97.6993,318.1988,116.5392,243.6535,0,U,48915,999,27162,.14560998E-3,.7452E-4,0
FARADAY_PHOENIX,2021-059AX,2026-05-13T12:12:44.360064,15.70692043,.00051213,97.6855,327.9095,109.3288,250.8528,0,U,48924,999,27220,.55823905E-3,.69299E-3,0
DEMO8 (TENZING),2021-059CA,2026-05-13T11:25:28.450272,15.53645982,.00082806,97.7043,324.2894,111.0792,249.1346,0,U,48951,999,27191,.20114194E-3,.12751E-3,0
NAPA-2,2021-059CN,2026-05-13T22:18:49.525632,15.85176438,.00021302,97.6770,328.6044,122.5534,237.5942,0,U,48963,999,27236,.55223206E-3,.131479E-2,0
FENGYUN 3E,2021-062A,2026-05-13T22:54:48.168288,14.19899828,.00018125,98.7503,137.7441,145.5576,214.5718,0,U,49008,999,25172,-.18135376E-3,-.429E-5,0
ISS (NAUKA),2021-066A,2026-05-13T10:11:17.530080,15.49204198,.00075292,51.6312,112.1826,54.1813,305.9874,0,U,49044,999,56650,.97698487E-4,.4975E-4,0
STARLINK-3100,2021-082Q,2026-05-13T09:24:13.413024,14.98353340,.00038799,69.9986,131.3091,265.6454,94.4262,0,U,49144,999,25567,.20351973E-3,.2338E-4,0
CUTE,2021-088D,2026-05-13T05:22:00.323904,15.78597278,.00016852,97.4192,229.5484,271.3209,88.7865,0,U,49263,999,25701,.71033609E-3,.12474E-2,0
2021-091B,2021-091B,2026-05-13T23:46:27.708672,15.18372360,.00138619,97.4483,322.0909,153.5912,206.6031,0,U,49316,999,25379,.10561411E-3,.2107E-4,0
SDGSAT 1,2021-100A,2026-05-13T22:17:29.203872,15.19744490,.0009555,97.2667,182.1471,59.9539,300.2643,0,U,49387,999,25071,.86090825E-4,.1776E-4,0
TEIKYOSAT-4 (OORURI),2021-102B,2026-05-13T12:23:40.031520,15.09379418,.00134871,97.3698,164.3465,57.3904,302.8625,0,U,49396,999,24749,.7414146E-4,.1125E-4,0
Z-SAT,2021-102E,2026-05-13T23:44:29.808960,15.17989896,.00169463,97.3362,170.3524,13.1683,346.9990,0,U,49399,999,24825,.50322585E-4,.96E-5,0
HIBARI,2021-102F,2026-05-13T08:57:54.704448,15.31007887,.00103694,97.3271,179.6880,331.6924,28.3752,0,U,49400,999,24886,.21029254E-3,.6232E-4,0
KOSEN-1,2021-102H,2026-05-13T20:38:15.480960,15.26345575,.0012681,97.3217,176.6917,335.8232,24.2410,0,U,49402,999,24878,.19140864E-3,.4911E-4,0
GLOBAL-14,2021-106A,2026-05-13T09:54:57.414528,15.48911628,.00143561,42.0032,137.4611,146.9488,213.2255,0,U,49469,999,25273,.25584974E-3,.13927E-3,0
GAOFEN-3 02,2021-109A,2026-05-13T23:37:22.763136,14.42211788,.00040218,98.4102,142.5660,90.3812,269.7839,0,U,49495,999,23538,-.39460325E-4,-.173E-5,0
GLOBAL-12,2021-115BA,2026-05-13T12:06:30.890880,15.51695674,.00022534,53.1952,211.0391,330.0254,30.0627,0,U,49772,999,25051,.31964712E-3,.18935E-3,0
GLOBAL-13,2021-115BB,2026-05-13T12:28:10.905888,15.44797267,.00032668,53.1973,219.2174,27.8341,332.2841,0,U,49773,999,25040,.27217484E-3,.12544E-3,0
GLOBAL-17,2021-120A,2026-05-13T17:02:21.862464,15.50516093,.00129345,41.9954,254.4491,5.7087,354.3902,0,U,49949,999,24954,.31241416E-3,.18084E-3,0
GLOBAL-16,2021-120B,2026-05-13T17:50:44.441088,15.48608077,.00111811,41.9959,257.3667,355.3788,4.6950,0,U,49950,999,24950,.30659111E-3,.16552E-3,0
XW-3 (CAS-9),2021-131B,2026-05-13T23:15:52.809408,14.41322326,.0003883,98.4956,226.5477,183.4673,176.6489,0,U,50466,999,23018,.42460468E-4,.93E-6,0
